{
  "norad_id": 57879,
  "name": "STARLINK-30358",
  "history": [
    {
      "epoch": "2026-03-28T14:29:45.091104Z",
      "apogee_km": 484.18382166296306,
      "perigee_km": 481.973138035356,
      "latitude_deg": 6.219467817152044e-05,
      "longitude_deg": 134.61572715346782,
      "height_km": 482.5725829622008,
      "semi_major_axis_km": 6861.215479849159,
      "eccentricity": 0.0001611,
      "inclination_deg": 43.001,
      "raan_deg": 178.0756,
      "arg_perigee_deg": 284.8278,
      "mean_anomaly_deg": 75.2396,
      "mean_motion_rev_day": 15.27570187
    }
  ]
}